GLOBALSTAR M067 [+]     
1 32263U 07048A   23313.40829220 -.00000058  00000+0  29493-3 0  9997
2 32263  51.9737 309.9107 0000766 147.8033   0.1944 12.40634127736772
GLOBALSTAR M070 [+]     
1 32264U 07048B   23313.50024557 -.00000066  00000+0  21017-3 0  9992
2 32264  51.9727 112.6825 0000632 120.3725 274.9115 12.62281818739700
GLOBALSTAR M066 [+]     
1 32265U 07048C   23313.39443253 -.00000060  00000+0  24252-3 0  9996
2 32265  51.9693 335.0615 0000632  61.6125  44.6006 12.62275868741951
GLOBALSTAR M068 [-]     
1 32266U 07048D   23313.37988031 -.00000053  00000+0  28018-3 0  9999
2 32266  51.9889 287.9102 0000678 324.3912 200.3842 12.62770689743545
GLOBALSTAR M079 [+]     
1 37188U 10054A   23313.44322913 -.00000077  00000+0  14992-3 0  9999
2 37188  52.0015 122.8841 0001162  97.7043 279.5726 12.62269818602481
GLOBALSTAR M074 [+]     
1 37189U 10054B   23313.46983587 -.00000082  00000+0  12393-3 0  9991
2 37189  51.9992 122.2153 0000955 101.3993 277.3849 12.62271891603093
GLOBALSTAR M076 [+]     
1 37190U 10054C   23313.41547265 -.00000067  00000+0  20405-3 0  9993
2 37190  52.0005 122.5002 0001378 117.7609 252.9498 12.62263661602806
GLOBALSTAR M077 [+]     
1 37191U 10054D   23313.57628395 -.00000072  00000+0  17798-3 0  9992
2 37191  52.0066  78.6974 0000753 115.7605 325.2799 12.62266424603194
